{
  "type": "FeatureCollection",
  "features": [
    {
      "type": "Feature",
      "properties": {
        "norad_id": 37238,
        "name": "INTELSAT 17 (IS-17)",
        "group": "intelsat",
        "lat": -0.024408538799927087,
        "lon": -105.73885460606884,
        "alt_km": 35775.69927266445,
        "timestamp": "2025-12-06T07:31:39.912129+00:00",
        "meta_object_name": "INTELSAT 17 (IS-17)",
        "meta_object_id": "2010-065B",
        "meta_epoch": "2025-12-05T02:01:33.409344",
        "meta_mean_motion": 1.00271476,
        "meta_eccentricity": 0.00024604,
        "meta_inclination": 0.0118,
        "meta_ra_of_asc_node": 292.4833,
        "meta_arg_of_pericenter": 318.9459,
        "meta_mean_anomaly": 279.1053,
        "meta_ephemeris_type": 0,
        "meta_classification_type": "U",
        "meta_norad_cat_id": 37238,
        "meta_element_set_no": 999,
        "meta_rev_at_epoch": 5130,
        "meta_bstar": 0,
        "meta_mean_motion_dot": 1.1e-07,
        "meta_mean_motion_ddot": 0,
        "tle_line1": "1 37238U 10065B   25339.08441446  .00000011  00000+0  00000+0 0  9998",
        "tle_line2": "2 37238   0.0118 292.4833 0002460 318.9459 279.1053  1.00271476 51301"
      },
      "geometry": {
        "type": "Point",
        "coordinates": [
          -105.73885460606884,
          -0.024408538799927087
        ]
      }
    },
    {
      "type": "Feature",
      "properties": {
        "norad_id": 37392,
        "name": "INTELSAT 28 (IS-28)",
        "group": "intelsat",
        "lat": 1.237870031372749,
        "lon": 156.50444579314322,
        "alt_km": 35790.38807483002,
        "timestamp": "2025-12-06T07:31:39.912140+00:00",
        "meta_object_name": "INTELSAT 28 (IS-28)",
        "meta_object_id": "2011-016A",
        "meta_epoch": "2025-12-05T03:16:26.232672",
        "meta_mean_motion": 1.00270852,
        "meta_eccentricity": 0.00041576,
        "meta_inclination": 1.3037,
        "meta_ra_of_asc_node": 85.1519,
        "meta_arg_of_pericenter": 174.9089,
        "meta_mean_anomaly": 191.5421,
        "meta_ephemeris_type": 0,
        "meta_classification_type": "U",
        "meta_norad_cat_id": 37392,
        "meta_element_set_no": 999,
        "meta_rev_at_epoch": 5134,
        "meta_bstar": 0,
        "meta_mean_motion_dot": -2.13e-06,
        "meta_mean_motion_ddot": 0,
        "tle_line1": "1 37392U 11016A   25339.13641473 -.00000213  00000+0  00000+0 0  9999",
        "tle_line2": "2 37392   1.3037  85.1519 0004157 174.9089 191.5421  1.00270852 51345"
      },
      "geometry": {
        "type": "Point",
        "coordinates": [
          156.50444579314322,
          1.237870031372749
        ]
      }
    },
    {
      "type": "Feature",
      "properties": {
        "norad_id": 37834,
        "name": "INTELSAT 18 (IS-18)",
        "group": "intelsat",
        "lat": 0.02494794265021914,
        "lon": 8.280047789050577,
        "alt_km": 35789.43458891744,
        "timestamp": "2025-12-06T07:31:39.912152+00:00",
        "meta_object_name": "INTELSAT 18 (IS-18)",
        "meta_object_id": "2011-056A",
        "meta_epoch": "2025-12-04T19:43:08.401728",
        "meta_mean_motion": 1.00271074,
        "meta_eccentricity": 0.0002114,
        "meta_inclination": 0.0126,
        "meta_ra_of_asc_node": 297.1344,
        "meta_arg_of_pericenter": 319.7042,
        "meta_mean_anomaly": 292.832,
        "meta_ephemeris_type": 0,
        "meta_classification_type": "U",
        "meta_norad_cat_id": 37834,
        "meta_element_set_no": 999,
        "meta_rev_at_epoch": 5186,
        "meta_bstar": 0,
        "meta_mean_motion_dot": 6.7e-07,
        "meta_mean_motion_ddot": 0,
        "tle_line1": "1 37834U 11056A   25338.82162502  .00000067  00000+0  00000+0 0  9996",
        "tle_line2": "2 37834   0.0126 297.1344 0002114 319.7042 292.8320  1.00271074 51868"
      },
      "geometry": {
        "type": "Point",
        "coordinates": [
          8.280047789050577,
          0.02494794265021914
        ]
      }
    },
    {
      "type": "Feature",
      "properties": {
        "norad_id": 38098,
        "name": "INTELSAT 22 (IS-22)",
        "group": "intelsat",
        "lat": -0.029361691739555083,
        "lon": -99.63580140825071,
        "alt_km": 35779.09975805133,
        "timestamp": "2025-12-06T07:31:39.912165+00:00",
        "meta_object_name": "INTELSAT 22 (IS-22)",
        "meta_object_id": "2012-011A",
        "meta_epoch": "2025-12-05T02:03:18.241920",
        "meta_mean_motion": 1.00271022,
        "meta_eccentricity": 0.00016952,
        "meta_inclination": 0.0065,
        "meta_ra_of_asc_node": 4.2211,
        "meta_arg_of_pericenter": 257.4518,
        "meta_mean_anomaly": 275.4067,
        "meta_ephemeris_type": 0,
        "meta_classification_type": "U",
        "meta_norad_cat_id": 38098,
        "meta_element_set_no": 999,
        "meta_rev_at_epoch": 524,
        "meta_bstar": 0,
        "meta_mean_motion_dot": -4.6e-07,
        "meta_mean_motion_ddot": 0,
        "tle_line1": "1 38098U 12011A   25339.08562780 -.00000046  00000+0  00000+0 0  9990",
        "tle_line2": "2 38098   0.0065   4.2211 0001695 257.4518 275.4067  1.00271022  5241"
      },
      "geometry": {
        "type": "Point",
        "coordinates": [
          -99.63580140825071,
          -0.029361691739555083
        ]
      }
    },
    {
      "type": "Feature",
      "properties": {
        "norad_id": 38356,
        "name": "INTELSAT 19 (IS-19)",
        "group": "intelsat",
        "lat": 0.01346145492053132,
        "lon": -5.697759830915228,
        "alt_km": 35787.78731847968,
        "timestamp": "2025-12-06T07:31:39.912177+00:00",
        "meta_object_name": "INTELSAT 19 (IS-19)",
        "meta_object_id": "2012-030A",
        "meta_epoch": "2025-12-04T19:39:08.785152",
        "meta_mean_motion": 1.0026986,
        "meta_eccentricity": 0.000349,
        "meta_inclination": 0.011,
        "meta_ra_of_asc_node": 331.3941,
        "meta_arg_of_pericenter": 288.2851,
        "meta_mean_anomaly": 275.0025,
        "meta_ephemeris_type": 0,
        "meta_classification_type": "U",
        "meta_norad_cat_id": 38356,
        "meta_element_set_no": 999,
        "meta_rev_at_epoch": 4850,
        "meta_bstar": 0,
        "meta_mean_motion_dot": -4.3e-07,
        "meta_mean_motion_ddot": 0,
        "tle_line1": "1 38356U 12030A   25338.81885168 -.00000043  00000+0  00000+0 0  9993",
        "tle_line2": "2 38356   0.0110 331.3941 0003490 288.2851 275.0025  1.00269860 48503"
      },
      "geometry": {
        "type": "Point",
        "coordinates": [
          -5.697759830915228,
          0.01346145492053132
        ]
      }
    },
    {
      "type": "Feature",
      "properties": {
        "norad_id": 38740,
        "name": "INTELSAT 20 (IS-20)",
        "group": "intelsat",
        "lat": -0.03866753670374261,
        "lon": -103.18151943363942,
        "alt_km": 35777.9024044044,
        "timestamp": "2025-12-06T07:31:39.912189+00:00",
        "meta_object_name": "INTELSAT 20 (IS-20)",
        "meta_object_id": "2012-043A",
        "meta_epoch": "2025-12-05T04:09:38.711808",
        "meta_mean_motion": 1.00278846,
        "meta_eccentricity": 0.00029413,
        "meta_inclination": 0.0145,
        "meta_ra_of_asc_node": 355.6883,
        "meta_arg_of_pericenter": 200.7135,
        "meta_mean_anomaly": 8.7419,
        "meta_ephemeris_type": 0,
        "meta_classification_type": "U",
        "meta_norad_cat_id": 38740,
        "meta_element_set_no": 999,
        "meta_rev_at_epoch": 4880,
        "meta_bstar": 0,
        "meta_mean_motion_dot": 0,
        "meta_mean_motion_ddot": 0,
        "tle_line1": "1 38740U 12043A   25339.17336472  .00000000  00000+0  00000+0 0  9995",
        "tle_line2": "2 38740   0.0145 355.6883 0002941 200.7135   8.7419  1.00278846 48801"
      },
      "geometry": {
        "type": "Point",
        "coordinates": [
          -103.18151943363942,
          -0.03866753670374261
        ]
      }
    },
    {
      "type": "Feature",
      "properties": {
        "norad_id": 38749,
        "name": "INTELSAT 21 (IS-21)",
        "group": "intelsat",
        "lat": 0.013892642773632748,
        "lon": 130.2412279997578,
        "alt_km": 35790.66770213418,
        "timestamp": "2025-12-06T07:31:39.912201+00:00",
        "meta_object_name": "INTELSAT 21 (IS-21)",
        "meta_object_id": "2012-045A",
        "meta_epoch": "2025-12-05T03:08:56.950080",
        "meta_mean_motion": 1.0027177,
        "meta_eccentricity": 0.00022929,
        "meta_inclination": 0.0021,
        "meta_ra_of_asc_node": 349.3902,
        "meta_arg_of_pericenter": 258.0279,
        "meta_mean_anomaly": 176.0157,
        "meta_ephemeris_type": 0,
        "meta_classification_type": "U",
        "meta_norad_cat_id": 38749,
        "meta_element_set_no": 999,
        "meta_rev_at_epoch": 4857,
        "meta_bstar": 0,
        "meta_mean_motion_dot": -2.72e-06,
        "meta_mean_motion_ddot": 0,
        "tle_line1": "1 38749U 12045A   25339.13121470 -.00000272  00000+0  00000+0 0  9994",
        "tle_line2": "2 38749   0.0021 349.3902 0002292 258.0279 176.0157  1.00271770 48570"
      },
      "geometry": {
        "type": "Point",
        "coordinates": [
          130.2412279997578,
          0.013892642773632748
        ]
      }
    }
  ]
}